[{"OBJECT_NAME":"TECHNOSAT","OBJECT_ID":"2017-042E","EPOCH":"2026-03-09T21:27:07.546176","MEAN_MOTION":15.04288119,"ECCENTRICITY":0.00196291,"INCLINATION":97.4156,"RA_OF_ASC_NODE":230.4429,"ARG_OF_PERICENTER":75.0719,"MEAN_ANOMALY":285.2679,"EPHEMERIS_TYPE":0,"CLASSIFICATION_TYPE":"U","NORAD_CAT_ID":42829,"ELEMENT_SET_NO":999,"REV_AT_EPOCH":47177,"BSTAR":0.00032015047,"MEAN_MOTION_DOT":4.417e-5,"MEAN_MOTION_DDOT":0},{"OBJECT_NAME":"STARLINK-36207","OBJECT_ID":"2025-293M","EPOCH":"2026-03-09T11:22:17.509728","MEAN_MOTION":14.98309286,"ECCENTRICITY":0.0002744,"INCLINATION":70.0014,"RA_OF_ASC_NODE":95.0756,"ARG_OF_PERICENTER":271.2365,"MEAN_ANOMALY":88.8479,"EPHEMERIS_TYPE":0,"CLASSIFICATION_TYPE":"U","NORAD_CAT_ID":67014,"ELEMENT_SET_NO":999,"REV_AT_EPOCH":1485,"BSTAR":0.00020756491,"MEAN_MOTION_DOT":2.383e-5,"MEAN_MOTION_DDOT":0}]
